[
    {
        "Altitude(m)": 622200.1381285663,
        "Argument of Periapsis(deg)": 0.0,
        "Eccentricity": 0.0,
        "Inclination(deg)": 60.0,
        "Latitude(deg)": -52.16262358771188,
        "Longitude(deg)": -132.63934349052374,
        "Mean Anomaly(deg)": 294.5455,
        "RAAN(deg)": 15.0,
        "Satellite Name": "Test1 84",
        "Satellite Number": 84,
        "Semi-Major Axis(m)": 6980739.136638005,
        "Time(s)": 0
    },
    {
        "Altitude(m)": 622058.3063374149,
        "Argument of Periapsis(deg)": 0.00010418945913296404,
        "Eccentricity": 0.0,
        "Inclination(deg)": 60.0,
        "Latitude(deg)": -51.7993742441542,
        "Longitude(deg)": -131.87128290452105,
        "Mean Anomaly(deg)": 295.1656061454619,
        "RAAN(deg)": 14.999579950860259,
        "Satellite Name": "Test1 84",
        "Satellite Number": 84,
        "Semi-Major Axis(m)": 6980739.136638005,
        "Time(s)": 10
    },
    {
        "Altitude(m)": 621913.7412460089,
        "Argument of Periapsis(deg)": 0.0002083789182659281,
        "Eccentricity": 0.0,
        "Inclination(deg)": 60.0,
        "Latitude(deg)": -51.43061329225767,
        "Longitude(deg)": -131.11620113339205,
        "Mean Anomaly(deg)": 295.78571229092364,
        "RAAN(deg)": 14.999159901720514,
        "Satellite Name": "Test1 84",
        "Satellite Number": 84,
        "Semi-Major Axis(m)": 6980739.136638005,
        "Time(s)": 20
    },
    {
        "Altitude(m)": 621766.4992934896,
        "Argument of Periapsis(deg)": 0.00031256837739889213,
        "Eccentricity": 0.0,
        "Inclination(deg)": 60.0,
        "Latitude(deg)": -51.056497853538616,
        "Longitude(deg)": -130.3739084811907,
        "Mean Anomaly(deg)": 296.4058184363855,
        "RAAN(deg)": 14.99873985258077,
        "Satellite Name": "Test1 84",
        "Satellite Number": 84,
        "Semi-Major Axis(m)": 6980739.136638005,
        "Time(s)": 30
    },
    {
        "Altitude(m)": 621616.6379354094,
        "Argument of Periapsis(deg)": 0.0004167578365318562,
        "Eccentricity": 0.0,
        "Inclination(deg)": 60.0,
        "Latitude(deg)": -50.67718135898658,
        "Longitude(deg)": -129.64420748627313,
        "Mean Anomaly(deg)": 297.02592458184733,
        "RAAN(deg)": 14.998319803441028,
        "Satellite Name": "Test1 84",
        "Satellite Number": 84,
        "Semi-Major Axis(m)": 6980739.136638005,
        "Time(s)": 40
    },
    {
        "Altitude(m)": 621464.2156191423,
        "Argument of Periapsis(deg)": 0.0005209472956648203,
        "Eccentricity": 0.0,
        "Inclination(deg)": 60.0,
        "Latitude(deg)": -50.29281352205533,
        "Longitude(deg)": -128.92689497115117,
        "Mean Anomaly(deg)": 297.6460307273092,
        "RAAN(deg)": 14.997899754301287,
        "Satellite Name": "Test1 84",
        "Satellite Number": 84,
        "Semi-Major Axis(m)": 6980739.136638005,
        "Time(s)": 50
    },
    {
        "Altitude(m)": 621309.2917588042,
        "Argument of Periapsis(deg)": 0.0006251367547977843,
        "Eccentricity": 0.0,
        "Inclination(deg)": 60.0,
        "Latitude(deg)": -49.903540326211065,
        "Longitude(deg)": -128.22176251012394,
        "Mean Anomaly(deg)": 298.266136872771,
        "RAAN(deg)": 14.997479705161544,
        "Satellite Name": "Test1 84",
        "Satellite Number": 84,
        "Semi-Major Axis(m)": 6980739.136638005,
        "Time(s)": 60
    },
    {
        "Altitude(m)": 621151.926709804,
        "Argument of Periapsis(deg)": 0.0007293262139307483,
        "Eccentricity": 0.0,
        "Inclination(deg)": 60.0,
        "Latitude(deg)": -49.50950402563189,
        "Longitude(deg)": -127.52859682896613,
        "Mean Anomaly(deg)": 298.88624301823285,
        "RAAN(deg)": 14.997059656021802,
        "Satellite Name": "Test1 84",
        "Satellite Number": 84,
        "Semi-Major Axis(m)": 6980739.136638005,
        "Time(s)": 70
    },
    {
        "Altitude(m)": 620992.1817429187,
        "Argument of Periapsis(deg)": 0.0008335156730637124,
        "Eccentricity": 0.0,
        "Inclination(deg)": 60.0,
        "Latitude(deg)": -49.110843157724965,
        "Longitude(deg)": -126.84718165137393,
        "Mean Anomaly(deg)": 299.50634916369467,
        "RAAN(deg)": 14.996639606882056,
        "Satellite Name": "Test1 84",
        "Satellite Number": 84,
        "Semi-Major Axis(m)": 6980739.136638005,
        "Time(s)": 80
    },
    {
        "Altitude(m)": 620830.1190179812,
        "Argument of Periapsis(deg)": 0.0009377051321966765,
        "Eccentricity": 0.0,
        "Inclination(deg)": 60.0,
        "Latitude(deg)": -48.70769256620463,
        "Longitude(deg)": -126.17729796857029,
        "Mean Anomaly(deg)": 300.1264553091565,
        "RAAN(deg)": 14.996219557742315,
        "Satellite Name": "Test1 84",
        "Satellite Number": 84,
        "Semi-Major Axis(m)": 6980739.136638005,
        "Time(s)": 90
    },
    {
        "Altitude(m)": 620665.801557163,
        "Argument of Periapsis(deg)": 0.0010418945913296407,
        "Eccentricity": 0.0,
        "Inclination(deg)": 60.0,
        "Latitude(deg)": -48.300183433546216,
        "Longitude(deg)": -125.51872424736443,
        "Mean Anomaly(deg)": 300.74656145461836,
        "RAAN(deg)": 14.995799508602571,
        "Satellite Name": "Test1 84",
        "Satellite Number": 84,
        "Semi-Major Axis(m)": 6980739.136638005,
        "Time(s)": 100
    },
    {
        "Altitude(m)": 620499.2932178531,
        "Argument of Periapsis(deg)": 0.0011460840504626045,
        "Eccentricity": 0.0,
        "Inclination(deg)": 60.0,
        "Latitude(deg)": -47.888443321707044,
        "Longitude(deg)": -124.87123809215737,
        "Mean Anomaly(deg)": 301.3666676000801,
        "RAAN(deg)": 14.99537945946283,
        "Satellite Name": "Test1 84",
        "Satellite Number": 84,
        "Semi-Major Axis(m)": 6980739.136638005,
        "Time(s)": 110
    },
    {
        "Altitude(m)": 620330.6586651587,
        "Argument of Periapsis(deg)": 0.0012502735095955685,
        "Eccentricity": 0.0,
        "Inclination(deg)": 60.0,
        "Latitude(deg)": -47.47259622008675,
        "Longitude(deg)": -124.23461633789714,
        "Mean Anomaly(deg)": 301.986773745542,
        "RAAN(deg)": 14.994959410323089,
        "Satellite Name": "Test1 84",
        "Satellite Number": 84,
        "Semi-Major Axis(m)": 6980739.136638005,
        "Time(s)": 120
    },
    {
        "Altitude(m)": 620159.9633440569,
        "Argument of Periapsis(deg)": 0.0013544629687285324,
        "Eccentricity": 0.0,
        "Inclination(deg)": 60.0,
        "Latitude(deg)": -47.05276259977004,
        "Longitude(deg)": -123.60863508970769,
        "Mean Anomaly(deg)": 302.6068798910038,
        "RAAN(deg)": 14.994539361183342,
        "Satellite Name": "Test1 84",
        "Satellite Number": 84,
        "Semi-Major Axis(m)": 6980739.136638005,
        "Time(s)": 130
    },
    {
        "Altitude(m)": 619987.2734511462,
        "Argument of Periapsis(deg)": 0.0014586524278614966,
        "Eccentricity": 0.0,
        "Inclination(deg)": 60.0,
        "Latitude(deg)": -46.62905947316829,
        "Longitude(deg)": -122.9930712249628,
        "Mean Anomaly(deg)": 303.22698603646563,
        "RAAN(deg)": 14.994119312043603,
        "Satellite Name": "Test1 84",
        "Satellite Number": 84,
        "Semi-Major Axis(m)": 6980739.136638005,
        "Time(s)": 140
    },
    {
        "Altitude(m)": 619812.6559060849,
        "Argument of Periapsis(deg)": 0.0015628418869944607,
        "Eccentricity": 0.0,
        "Inclination(deg)": 60.0,
        "Latitude(deg)": -46.20160045825283,
        "Longitude(deg)": -122.38770233496203,
        "Mean Anomaly(deg)": 303.84709218192745,
        "RAAN(deg)": 14.993699262903858,
        "Satellite Name": "Test1 84",
        "Satellite Number": 84,
        "Semi-Major Axis(m)": 6980739.136638005,
        "Time(s)": 150
    },
    {
        "Altitude(m)": 619636.1783226855,
        "Argument of Periapsis(deg)": 0.0016670313461274247,
        "Eccentricity": 0.0,
        "Inclination(deg)": 60.0,
        "Latitude(deg)": -45.770495846635605,
        "Longitude(deg)": -121.79230662197229,
        "Mean Anomaly(deg)": 304.46719832738927,
        "RAAN(deg)": 14.993279213764117,
        "Satellite Name": "Test1 84",
        "Satellite Number": 84,
        "Semi-Major Axis(m)": 6980739.136638005,
        "Time(s)": 160
    },
    {
        "Altitude(m)": 619457.9089796821,
        "Argument of Periapsis(deg)": 0.0017712208052603888,
        "Eccentricity": 0.0,
        "Inclination(deg)": 60.0,
        "Latitude(deg)": -45.335852674819236,
        "Longitude(deg)": -121.20666426735751,
        "Mean Anomaly(deg)": 305.0873044728511,
        "RAAN(deg)": 14.992859164624372,
        "Satellite Name": "Test1 84",
        "Satellite Number": 84,
        "Semi-Major Axis(m)": 6980739.136638005,
        "Time(s)": 170
    },
    {
        "Altitude(m)": 619277.9167911691,
        "Argument of Periapsis(deg)": 0.001875410264393353,
        "Eccentricity": 0.0,
        "Inclination(deg)": 60.0,
        "Latitude(deg)": -44.897774798003674,
        "Longitude(deg)": -120.63055724782245,
        "Mean Anomaly(deg)": 305.70741061831296,
        "RAAN(deg)": 14.99243911548463,
        "Satellite Name": "Test1 84",
        "Satellite Number": 84,
        "Semi-Major Axis(m)": 6980739.136638005,
        "Time(s)": 180
    },
    {
        "Altitude(m)": 619096.2712767697,
        "Argument of Periapsis(deg)": 0.0019795997235263173,
        "Eccentricity": 0.0,
        "Inclination(deg)": 60.0,
        "Latitude(deg)": -44.45636296589316,
        "Longitude(deg)": -120.06376911534738,
        "Mean Anomaly(deg)": 306.3275167637747,
        "RAAN(deg)": 14.992019066344888,
        "Satellite Name": "Test1 84",
        "Satellite Number": 84,
        "Semi-Major Axis(m)": 6980739.136638005,
        "Time(s)": 190
    }
]